{
  "norad_id": 56287,
  "name": "STARLINK-30107",
  "history": [
    {
      "epoch": "2026-03-28T16:26:36.125376",
      "apogee_km": 483.83433748294374,
      "perigee_km": 482.24666100961804,
      "latitude_deg": 34.68700432821251,
      "longitude_deg": -125.52652736008167,
      "semi_major_axis_km": 6861.177499246281,
      "eccentricity": 0.0001157,
      "inclination_deg": 43.0038,
      "raan_deg": 83.8712,
      "arg_perigee_deg": 272.81,
      "mean_anomaly_deg": 87.2619,
      "mean_motion_rev_day": 15.27582871
    }
  ]
}